ONEWEB-0325             
1 49194U 21083J   22092.91668981  .00045470  00000+0  11477+0 0  9992
2 49194  87.9044 280.6619 0002366  67.4270 154.9792 13.18661035  3291
ONEWEB-0326             
1 49195U 21083K   22092.91668981  .00047950  00000+0  12099+0 0  9999
2 49195  87.9047 280.7572 0000920  91.0825  79.8197 13.18666267  3293
ONEWEB-0327             
1 49196U 21083L   22092.91668981  .00044076  00000+0  11125+0 0  9995
2 49196  87.9058 280.7192 0000652 110.1761 134.1559 13.18671635  3290
ONEWEB-0328             
1 49197U 21083M   22092.91668981  .00036423  00000+0  99340-1 0  9990
2 49197  87.8978 265.4018 0001481  92.8158 118.1247 13.13450641  3333
ONEWEB-0331             
1 49198U 21083N   22092.91668981  .00047110  00000+0  11888+0 0  9995
2 49198  87.9058 280.7641 0001290  89.6484 103.3165 13.18666391  3296
ONEWEB-0333             
1 49199U 21083P   22093.25001157  .00000013  00000+0  00000+0 0  9995
2 49199  87.8996 265.3203 0001435  61.0293 304.5869 13.15124129 30575
ONEWEB-0334             
1 49200U 21083Q   22093.25001157  .00033145  00000+0  34401-2 0  9995
2 49200  87.1991 257.0659 0002141 167.4060 296.4514 14.89806712 31234
ONEWEB-0335             
1 49201U 21083R   22093.25001157  .00000013  00000+0  00000+0 0  9999
2 49201  87.9301 265.2634 0001269 103.5275 245.0968 13.20957699 30586
ONEWEB-0336             
1 49202U 21083S   22093.25001157  .00009276  00000+0  20734-1 0  9998
2 49202  87.9434 265.2827 0001015 114.1687  55.1937 13.27022370 30573
ONEWEB-0337             
1 49203U 21083T   22093.25001157  .00000013  00000+0  00000+0 0  9991
2 49203  87.9047 265.2452 0001387  53.7631  11.6782 13.16785606 30589
ONEWEB-0338             
1 49204U 21083U   22093.25001157  .00031885  00000+0  33087-2 0  9997
2 49204  87.2050 257.2144 0000301 225.9873 135.6899 14.89821728 31238
ONEWEB-0339             
1 49205U 21083V   22093.25001157  .00010444  00000+0  28532-1 0  9994
2 49205  87.8962 265.3362 0002111  80.5508  11.1684 13.13469708 30567
ONEWEB-0340             
1 49206U 21083W   22093.25001157 -.00015502  00000+0 -39421-1 0  9996
2 49206  87.9047 280.7017 0001662  85.5705 307.7081 13.18687203 28834
ONEWEB-0341             
1 49207U 21083X   22092.91668981  .00045913  00000+0  11588+0 0  9992
2 49207  87.9069 280.6684 0002131  56.4410 158.5844 13.18662466  3296
ONEWEB-0342             
1 49208U 21083Y   22093.25001157  .00035152  00000+0  36453-2 0  9992
2 49208  87.2013 257.1187 0000471 229.5621 297.6845 14.89832233 31240
ONEWEB-0343             
1 49209U 21083Z   22092.91668981  .00044997  00000+0  11358+0 0  9990
2 49209  87.9060 280.7198 0002649  59.7221 170.1044 13.18661979  3290
ONEWEB-0344             
1 49210U 21083AA  22092.91668981  .00010263  00000+0  27952-1 0  9990
2 49210  87.8986 265.3470 0000853  95.7458   8.5403 13.13680384  3331
ONEWEB-0345             
1 49211U 21083AB  22093.25001157  .00009457  00000+0  25832-1 0  9993
2 49211  87.8974 265.3030 0001130  67.4407  87.9310 13.13476602 30570
ONEWEB-0346             
1 49212U 21083AC  22093.25001157 -.00015259  00000+0 -38799-1 0  9999
2 49212  87.9059 280.6479 0001156  94.5739 247.1478 13.18693056 28841
ONEWEB-0348             
1 49213U 21083AD  22092.91668981  .00035963  00000+0  37298-2 0  9992
2 49213  87.2035 257.2998 0000806 184.6904 314.5648 14.89823602  3551
ONEWEB-0350             
1 49214U 21083AE  22093.25001157  .00007405  00000+0  16589-1 0  9996
2 49214  87.9441 265.3436 0001598  96.0545 186.8935 13.26858506 30609
ONEWEB-0351             
1 49215U 21083AF  22093.25001157  .00035379  00000+0  36702-2 0  9998
2 49215  87.1973 257.0127 0001533 157.9732  95.6088 14.89815217 31251
ONEWEB-0352             
1 49216U 21083AG  22093.25001157  .00000013  00000+0  00000+0 0  9995
2 49216  87.9053 265.3338 0002012  72.2129 121.2890 13.17010903 30690
ONEWEB-0354             
1 49217U 21083AH  22092.91668981  .00036149  00000+0  37481-2 0  9997
2 49217  87.2020 257.2494 0000915 136.2440  21.6068 14.89833361  3554
ONEWEB-0355             
1 49218U 21083AJ  22093.25001157  .00007950  00000+0  20447-1 0  9993
2 49218  87.9105 265.2954 0001714  86.9619 131.0610 13.17575500 30561
ONEWEB-0357             
1 49219U 21083AK  22093.25001157  .00032298  00000+0  33509-2 0  9991
2 49219  87.2017 257.1291 0000573 257.4447 184.7438 14.89826726 31234
ONEWEB-0332             
1 49279U 21090A   22092.91668981 -.01103132  00000+0 -39598+0 0  9991
2 49279  87.8576 235.5354 0005380  73.1923  75.7800 14.37044485  3529
ONEWEB-0347             
1 49280U 21090B   22093.25001157 -.00965668  00000+0 -33085+0 0  9991
2 49280  87.8684 235.4165 0004153  63.1557 149.8514 14.39476425 25477
ONEWEB-0349             
1 49281U 21090C   22092.91668981 -.00017716  00000+0 -17914-2 0  9996
2 49281  87.2076 233.0865 0004647  68.9896 148.6447 14.91240547  3554
ONEWEB-0353             
1 49282U 21090D   22092.91668981 -.01050371  00000+0 -37933+0 0  9992
2 49282  87.8645 235.5744 0005384  54.1905  77.5385 14.37113616  3516
ONEWEB-0356             
1 49283U 21090E   22092.91668981 -.00012674  00000+0 -12825-2 0  9992
2 49283  87.2067 233.0902 0004551  78.5248 262.3195 14.91209321  3559
ONEWEB-0358             
1 49284U 21090F   22092.91668981 -.00011249  00000+0 -12203-2 0  9990
2 49284  87.5196 234.8771 0004334  83.2992 345.0862 14.88401870  3556
ONEWEB-0359             
1 49285U 21090G   22092.91668981 -.00014466  00000+0 -15694-2 0  9992
2 49285  87.5223 234.8653 0003763  82.7495  62.3690 14.88399296  3550
ONEWEB-0360             
1 49286U 21090H   22092.91668981 -.00012805  00000+0 -12953-2 0  9993
2 49286  87.2077 233.1084 0007681  81.3640 238.7119 14.91209505  3546
ONEWEB-0361             
1 49287U 21090J   22092.91668981 -.00013584  00000+0 -13736-2 0  9999
2 49287  87.2070 233.0955 0004835  76.4373 340.9654 14.91237325  3565
ONEWEB-0362             
1 49288U 21090K   22092.91668981  .00015409  00000+0  38395-1 0  9993
2 49288  87.9153 250.2899 0002072 108.0127 315.9257 13.19719560  3301
ONEWEB-0363             
1 49289U 21090L   22092.91668981 -.00013246  00000+0 -13406-2 0  9990
2 49289  87.2092 233.1424 0003292  58.8529 239.4372 14.91204090  3557
ONEWEB-0364             
1 49290U 21090M   22092.91668981 -.01098477  00000+0 -40709+0 0  9995
2 49290  87.8533 235.6518 0003128  69.0421 119.0764 14.35427668  3531
ONEWEB-0365             
1 49291U 21090N   22092.91668981  .00014780  00000+0  36830-1 0  9990
2 49291  87.9158 250.2694 0001751  91.6631 302.8907 13.19718828  3306
ONEWEB-0366             
1 49292U 21090P   22092.91668981 -.01092159  00000+0 -39771+0 0  9995
2 49292  87.8591 235.6004 0005317  70.4894   7.8915 14.36290659  3529
ONEWEB-0367             
1 49293U 21090Q   22092.91668981 -.00013673  00000+0 -13818-2 0  9996
2 49293  87.2114 233.1852 0006937  84.0190 200.2138 14.91249139  3544
ONEWEB-0368             
1 49294U 21090R   22092.91668981 -.01140415  00000+0 -41907+0 0  9990
2 49294  87.8528 235.6900 0004907  81.8079 230.0982 14.35969427  3520
ONEWEB-0369             
1 49295U 21090S   22093.16667824 -.00014177  00000+0 -35499-1 0  9999
2 49295  87.9167 250.1749 0002010 103.7478  52.5363 13.19725409 25103
ONEWEB-0370             
1 49296U 21090T   22092.91668981 -.00013362  00000+0 -13522-2 0  9996
2 49296  87.2052 233.0563 0004540  81.1480 342.5438 14.91207374  3564
ONEWEB-0371             
1 49297U 21090U   22092.91668981  .00014334  00000+0  35717-1 0  9994
2 49297  87.9159 250.1669 0001649  94.7177 285.2522 13.19724187  3312
ONEWEB-0372             
1 49298U 21090V   22092.91668981 -.00018434  00000+0 -18635-2 0  9993
2 49298  87.2066 233.0630 0007349  84.9872 102.5354 14.91242457  3553
ONEWEB-0373             
1 49299U 21090W   22092.91668981 -.01048041  00000+0 -36567+0 0  9993
2 49299  87.8595 235.5759 0008112  82.3410  76.8431 14.38825373  3515
ONEWEB-0374             
1 49300U 21090X   22092.91668981 -.01099823  00000+0 -39899+0 0  9991
2 49300  87.8600 235.6666 0006445  84.5201  45.3647 14.36498928  3523
ONEWEB-0375             
1 49301U 21090Y   22092.91668981 -.00012334  00000+0 -13381-2 0  9994
2 49301  87.5159 234.8459 0005124  86.0179   4.8784 14.88396929  3544
ONEWEB-0376             
1 49302U 21090Z   22092.91668981  .00014595  00000+0  36367-1 0  9992
2 49302  87.9160 250.2446 0002050 100.0213 287.2998 13.19722926  3312
ONEWEB-0377             
1 49303U 21090AA  22092.91668981 -.00014620  00000+0 -15861-2 0  9991
2 49303  87.5143 234.9343 0003298  80.5989  74.9714 14.88399751  3547
ONEWEB-0378             
1 49304U 21090AB  22092.91668981 -.00016203  00000+0 -16386-2 0  9994
2 49304  87.2020 232.9674 0005661  73.6429 172.0017 14.91230163  3554
ONEWEB-0379             
1 49305U 21090AC  22092.91668981 -.01074160  00000+0 -38140+0 0  9991
2 49305  87.8606 235.5952 0002909  84.0692 228.5490 14.37516861  3542
ONEWEB-0380             
1 49306U 21090AD  22093.25001157  .00033417  00000+0  83162-1 0  9999
2 49306  87.9162 250.1847 0001657  89.9849  94.7095 13.19700821 25126
ONEWEB-0381             
1 49307U 21090AE  22092.91668981 -.00013007  00000+0 -13152-2 0  9994
2 49307  87.2099 233.1531 0004270  80.5294 313.2991 14.91238478  3568
ONEWEB-0382             
1 49308U 21090AF  22092.91668981 -.00012833  00000+0 -12987-2 0  9996
2 49308  87.2052 233.0301 0004650  74.0830 263.1451 14.91204336  3546
ONEWEB-0383             
1 49309U 21090AG  22092.91668981 -.01062200  00000+0 -38294+0 0  9997
2 49309  87.8638 235.5735 0005660  86.3908 180.1403 14.37239056  3536
ONEWEB-0384             
1 49310U 21090AH  22092.91668981 -.00012887  00000+0 -13041-2 0  9990
2 49310  87.2045 233.0330 0005257  78.2375 244.9335 14.91204191  3555
ONEWEB-0385             
1 49311U 21090AJ  22093.25001157  .00066136  00000+0  66041-2 0  9997
2 49311  87.1993 232.8040 0006017  76.9595 274.3595 14.91173827 26883
